[{"OBJECT_NAME":"SHIYAN-20A (SY-20A)","OBJECT_ID":"2022-169A","EPOCH":"2026-03-09T23:38:29.678208","MEAN_MOTION":14.29494518,"ECCENTRICITY":0.0017718,"INCLINATION":59.9953,"RA_OF_ASC_NODE":208.2856,"ARG_OF_PERICENTER":122.2308,"MEAN_ANOMALY":238.0448,"EPHEMERIS_TYPE":0,"CLASSIFICATION_TYPE":"U","NORAD_CAT_ID":54699,"ELEMENT_SET_NO":999,"REV_AT_EPOCH":16917,"BSTAR":9.5561702e-5,"MEAN_MOTION_DOT":1.09e-6,"MEAN_MOTION_DDOT":0},{"OBJECT_NAME":"FENGYUN 1C DEB","OBJECT_ID":"1999-025BPL","EPOCH":"2026-03-08T14:35:44.299104","MEAN_MOTION":14.28166042,"ECCENTRICITY":0.00297656,"INCLINATION":99.4059,"RA_OF_ASC_NODE":121.2257,"ARG_OF_PERICENTER":168.018,"MEAN_ANOMALY":354.662,"EPHEMERIS_TYPE":0,"CLASSIFICATION_TYPE":"U","NORAD_CAT_ID":31302,"ELEMENT_SET_NO":999,"REV_AT_EPOCH":97583,"BSTAR":0.0018140886,"MEAN_MOTION_DOT":4.489e-5,"MEAN_MOTION_DDOT":0}]
